*******************************************************************************
 Revised: Jul 13, 2013          Jupiter Barycenter                            5
 
 Dynamical point:
 ---------------
 The location of the center-of-mass of the Jupiter system. The point about 
 which Jupiter and its satellites revolve. See 599 for Jupiter center.
*******************************************************************************
 
 
*******************************************************************************
Ephemeris / WWW_USER Wed Jun 17 12:23:34 2020 Pasadena, USA      / Horizons
*******************************************************************************
Target body name: Jupiter Barycenter (5)          {source: DE431mx}
Center body name: Solar System Barycenter (0)     {source: DE431mx}
Center-site name: BODY CENTER
*******************************************************************************
Start time      : A.D. 2000-Jun-05 00:00:00.0000 TDB
Stop  time      : A.D. 2040-May-26 00:00:00.0000 TDB
Step-size       : 14400 minutes
*******************************************************************************
Center geodetic : 0.00000000,0.00000000,0.0000000 {E-lon(deg),Lat(deg),Alt(km)}
Center cylindric: 0.00000000,0.00000000,0.0000000 {E-lon(deg),Dxy(km),Dz(km)}
Center radii    : (undefined)                                                  
Output units    : AU-D
Output type     : GEOMETRIC cartesian states
Output format   : 3 (position, velocity, LT, range, range-rate)
Reference frame : Ecliptic of J2000.0
*******************************************************************************
JDTDB
   X     Y     Z
   VX    VY    VZ
   LT    RG    RR
*******************************************************************************
$$SOE
2452510.500000000 = A.D. 2002-Aug-24 00:00:00.0000 TDB 
 X =-2.628246804438327E+00 Y = 4.547142122139046E+00 Z = 3.995228930807328E-02
 VX=-6.627567800582299E-03 VY=-3.417923323268074E-03 VZ= 1.624794340703418E-04
 LT= 3.033427309787185E-02 RG= 5.252216572971113E+00 RR= 3.586280532784874E-04
2452520.500000000 = A.D. 2002-Sep-03 00:00:00.0000 TDB 
 X =-2.694252624093608E+00 Y = 4.512500824779400E+00 Z = 4.157296055665256E-02
 VX=-6.573390405262815E-03 VY=-3.510187343429096E-03 VZ= 1.616495963658836E-04
 LT= 3.035494483304993E-02 RG= 5.255795772965260E+00 RR= 3.572002032817961E-04
2452530.500000000 = A.D. 2002-Sep-13 00:00:00.0000 TDB 
 X =-2.759710524372937E+00 Y = 4.476941375708830E+00 Z = 4.318517733756920E-02
 VX=-6.517986562377358E-03 VY=-3.601551241963626E-03 VZ= 1.607885894366299E-04
 LT= 3.037553207366647E-02 RG= 5.259360343179587E+00 RR= 3.557021964099513E-04
2452540.500000000 = A.D. 2002-Sep-23 00:00:00.0000 TDB 
 X =-2.824608320088638E+00 Y = 4.440472848354670E+00 Z = 4.478862943156200E-02
 VX=-6.461372147168066E-03 VY=-3.692000625983843E-03 VZ= 1.598967084784711E-04
 LT= 3.039603078504429E-02 RG= 5.262909585031397E+00 RR= 3.541346311581105E-04
2452550.500000000 = A.D. 2002-Oct-03 00:00:00.0000 TDB 
 X =-2.888933985325091E+00 Y = 4.403104458595099E+00 Z = 4.638300958911045E-02
 VX=-6.403563137839141E-03 VY=-3.781521398038680E-03 VZ= 1.589742522268789E-04
 LT= 3.041643696728485E-02 RG= 5.266442805959721E+00 RR= 3.524981131982039E-04
2452560.500000000 = A.D. 2002-Oct-13 00:00:00.0000 TDB 
 X =-2.952675654440140E+00 Y = 4.364845561809665E+00 Z = 4.796801356536033E-02
 VX=-6.344575610016968E-03 VY=-3.870099755131961E-03 VZ= 1.580215228646384E-04
 LT= 3.043674665565210E-02 RG= 5.269959319491798E+00 RR= 3.507932543650172E-04
2452570.500000000 = A.D. 2002-Oct-23 00:00:00.0000 TDB 
 X =-3.015821623015099E+00 Y = 4.325705649941813E+00 Z = 4.954334015401558E-02
 VX=-6.284425732019580E-03 VY=-3.957722187089064E-03 VZ= 1.570388258899914E-04
 LT= 3.045695592091873E-02 RG= 5.273458445303002E+00 RR= 3.490206725481477E-04
2452580.500000000 = A.D. 2002-Nov-02 00:00:00.0000 TDB 
 X =-3.078360348757287E+00 Y = 4.285694348582819E+00 Z = 5.110869121960453E-02
 VX=-6.223129759786122E-03 VY=-4.044375474214131E-03 VZ= 1.560264699522752E-04
 LT= 3.047706086972735E-02 RG= 5.276939509279406E+00 RR= 3.471809918919552E-04
2452590.500000000 = A.D. 2002-Nov-12 00:00:00.0000 TDB 
 X =-3.140280452349107E+00 Y = 4.244821414073783E+00 Z = 5.266377172866703E-02
 VX=-6.160704031657098E-03 VY=-4.130046686043566E-03 VZ= 1.549847667965673E-04
 LT= 3.049705764492532E-02 RG= 5.280401843575728E+00 RR= 3.452748418905015E-04
2452600.500000000 = A.D. 2002-Nov-22 00:00:00.0000 TDB 
 X =-3.201570718252110E+00 Y = 4.203096730621881E+00 Z = 5.420828978030185E-02
 VX=-6.097164964527331E-03 VY=-4.214723179368827E-03 VZ= 1.539140311656337E-04
 LT= 3.051694242587756E-02 RG= 5.283844786669512E+00 RR= 3.433028578131337E-04
2452610.500000000 = A.D. 2002-Dec-02 00:00:00.0000 TDB 
 X =-3.262220095474257E+00 Y = 4.160530307442694E+00 Z = 5.574195663539749E-02
 VX=-6.032529050141654E-03 VY=-4.298392595168803E-03 VZ= 1.528145806500436E-04
 LT= 3.053671142883792E-02 RG= 5.287267683425421E+00 RR= 3.412656820462221E-04
2452620.500000000 = A.D. 2002-Dec-12 00:00:00.0000 TDB 
 X =-3.322217698298690E+00 Y = 4.117132275935182E+00 Z = 5.726448674437282E-02
 VX=-5.966812851094861E-03 VY=-4.381042855206962E-03 VZ= 1.516867355406912E-04
 LT= 3.055636090739935E-02 RG= 5.290669885173177E+00 RR= 3.391639654178747E-04
2452630.500000000 = A.D. 2002-Dec-22 00:00:00.0000 TDB 
 X =-3.381552806970301E+00 Y = 4.072912886891368E+00 Z = 5.877559777345311E-02
 VX=-5.900032996329157E-03 VY=-4.462662158537250E-03 VZ= 1.505308186848067E-04
 LT= 3.057588715301141E-02 RG= 5.294050749797184E+00 RR= 3.369983681258278E-04
2452640.500000000 = A.D. 2003-Jan-01 00:00:00.0000 TDB 
 X =-3.440214868333404E+00 Y = 4.027882507739423E+00 Z = 6.027501062958363E-02
 VX=-5.832206175840290E-03 VY=-4.543238978443342E-03 VZ= 1.493471553618127E-04
 LT= 3.059528649552483E-02 RG= 5.297409641830792E+00 RR= 3.347695596226996E-04
2452650.500000000 = A.D. 2003-Jan-11 00:00:00.0000 TDB 
 X =-3.498193496413542E+00 Y = 3.982051619812296E+00 Z = 6.176244948431661E-02
 VX=-5.763349134962291E-03 VY=-4.622762060434530E-03 VZ= 1.481360732026288E-04
 LT= 3.061455530368940E-02 RG= 5.300745932542517E+00 RR= 3.324782171965372E-04
2452660.500000000 = A.D. 2003-Jan-21 00:00:00.0000 TDB 
 X =-3.555478472945376E+00 Y = 3.935430815633359E+00 Z = 6.323764179691325E-02
 VX=-5.693478669421812E-03 VY=-4.701220420582698E-03 VZ= 1.468979020980785E-04
 LT= 3.063368998556348E-02 RG= 5.304059000006943E+00 RR= 3.301250246213827E-04
2452670.500000000 = A.D. 2003-Jan-31 00:00:00.0000 TDB 
 X =-3.612059747852647E+00 Y = 3.888030796220654E+00 Z = 6.470031833643153E-02
 VX=-5.622611620437456E-03 VY=-4.778603343658309E-03 VZ= 1.456329741121349E-04
 LT= 3.065268698885643E-02 RG= 5.307348229164012E+00 RR= 3.277106708680160E-04
2452680.500000000 = A.D. 2003-Feb-10 00:00:00.0000 TDB 
 X =-3.667927439678817E+00 Y = 3.839862368405047E+00 Z = 6.615021320340178E-02
 VX=-5.550764870118532E-03 VY=-4.854900382140298E-03 VZ= 1.443416234687642E-04
 LT= 3.067154280117185E-02 RG= 5.310613011861141E+00 RR= 3.252358482695101E-04
2452690.500000000 = A.D. 2003-Feb-20 00:00:00.0000 TDB 
 X =-3.723071835979425E+00 Y = 3.790936442161454E+00 Z = 6.758706385101988E-02
 VX=-5.477955338273971E-03 VY=-4.930101354305394E-03 VZ= 1.430241864527459E-04
 LT= 3.069025395018772E-02 RG= 5.313852746884407E+00 RR= 3.227012522924232E-04
2452700.500000000 = A.D. 2003-Mar-02 00:00:00.0000 TDB 
 X =-3.777483393683601E+00 Y = 3.741264027964704E+00 Z = 6.901061110499637E-02
 VX=-5.404199979259605E-03 VY=-5.004196341411859E-03 VZ= 1.416810012574284E-04
 LT= 3.070881700384992E-02 RG= 5.317066839992060E+00 RR= 3.201075819620384E-04
2452710.500000000 = A.D. 2003-Mar-12 00:00:00.0000 TDB 
 X =-3.831152739422686E+00 Y = 3.690856234173996E+00 Z = 7.042059918192997E-02
 VX=-5.329515778591048E-03 VY=-5.077175684865026E-03 VZ= 1.403124078456472E-04
 LT= 3.072722857058475E-02 RG= 5.320254703951321E+00 RR= 3.174555400596891E-04
2452720.500000000 = A.D. 2003-Mar-22 00:00:00.0000 TDB 
 X =-3.884070669824752E+00 Y = 3.639724264445154E+00 Z = 7.181677570640428E-02
 VX=-5.253919749532084E-03 VY=-5.149029983485086E-03 VZ= 1.389187478344352E-04
 LT= 3.074548529951696E-02 RG= 5.323415758576121E+00 RR= 3.147458331391108E-04
2452730.500000000 = A.D. 2003-Apr-01 00:00:00.0000 TDB 
 X =-3.936228151774991E+00 Y = 3.587879415169713E+00 Z = 7.319889172706900E-02
 VX=-5.177428929670195E-03 VY=-5.219750090893737E-03 VZ= 1.375003644084991E-04
 LT= 3.076358388068402E-02 RG= 5.326549430764215E+00 RR= 3.119791713605767E-04
2452740.500000000 = A.D. 2003-Apr-11 00:00:00.0000 TDB 
 X =-3.987616322642364E+00 Y = 3.535333072939023E+00 Z = 7.456670173199083E-02
 VX=-5.100060377696497E-03 VY=-5.289327113098452E-03 VZ= 1.360576022538650E-04
 LT= 3.078152104523612E-02 RG= 5.329655154531808E+00 RR= 3.091562682584977E-04
2452750.500000000 = A.D. 2003-Apr-21 00:00:00.0000 TDB 
 X =-4.038226490477827E+00 Y = 3.482096712034410E+00 Z = 7.591996366315827E-02
 VX=-5.021831170910637E-03 VY=-5.357752405493907E-03 VZ= 1.345908074454761E-04
 LT= 3.079929356564446E-02 RG= 5.332732371049604E+00 RR= 3.062778413729060E-04
2452760.500000000 = A.D. 2003-May-01 00:00:00.0000 TDB 
 X =-4.088050134185363E+00 Y = 3.428181891951029E+00 Z = 7.725843892981951E-02
 VX=-4.942758401944404E-03 VY=-5.425017569455650E-03 VZ= 1.331003273561135E-04
 LT= 3.081689825594793E-02 RG= 5.335780528685543E+00 RR= 3.033446124707686E-04
2452770.500000000 = A.D. 2003-May-11 00:00:00.0000 TDB 
 X =-4.137078903655919E+00 Y = 3.373600254949731E+00 Z = 7.858189242139209E-02
 VX=-4.862859175035431E-03 VY=-5.491114450134249E-03 VZ= 1.315865106407309E-04
 LT= 3.083433197196710E-02 RG= 5.338799083041829E+00 RR= 3.003573065100802E-04
